{
  "type": "FeatureCollection",
  "features": [
    {
      "type": "Feature",
      "properties": {
        "norad_id": 66583,
        "name": "STARLINK-35941",
        "group": "last-30-days",
        "lat": -41.651722732722874,
        "lon": 53.55564787226968,
        "alt_km": 417.5453989605212,
        "timestamp": "2025-12-11T20:41:13.847487+00:00",
        "meta_object_name": "STARLINK-35941",
        "meta_object_id": "2025-268AC",
        "meta_epoch": "2025-12-11T14:00:01.999872",
        "meta_mean_motion": 15.50684286,
        "meta_eccentricity": 0.00012706,
        "meta_inclination": 42.9999,
        "meta_ra_of_asc_node": 127.8379,
        "meta_arg_of_pericenter": 276.8786,
        "meta_mean_anomaly": 248.8904,
        "meta_ephemeris_type": 0,
        "meta_classification_type": "U",
        "meta_norad_cat_id": 66583,
        "meta_element_set_no": 999,
        "meta_rev_at_epoch": 448,
        "meta_bstar": -0.0040915935,
        "meta_mean_motion_dot": -0.00234211,
        "meta_mean_motion_ddot": 0,
        "tle_line1": "1 66583U 25268AC  25345.58335648 -.00234211  00000+0 -40916-2 0  9998",
        "tle_line2": "2 66583  42.9999 127.8379 0001270 276.8786 248.8904 15.50684286  4489"
      },
      "geometry": {
        "type": "Point",
        "coordinates": [
          53.55564787226968,
          -41.651722732722874
        ]
      }
    },
    {
      "type": "Feature",
      "properties": {
        "norad_id": 66584,
        "name": "STARLINK-35939",
        "group": "last-30-days",
        "lat": -41.22720966493554,
        "lon": 56.090757812920394,
        "alt_km": 417.5599520408896,
        "timestamp": "2025-12-11T20:41:13.847499+00:00",
        "meta_object_name": "STARLINK-35939",
        "meta_object_id": "2025-268AD",
        "meta_epoch": "2025-12-11T14:00:01.999872",
        "meta_mean_motion": 15.50633557,
        "meta_eccentricity": 0.00013238,
        "meta_inclination": 42.9999,
        "meta_ra_of_asc_node": 127.8335,
        "meta_arg_of_pericenter": 275.3399,
        "meta_mean_anomaly": 252.4168,
        "meta_ephemeris_type": 0,
        "meta_classification_type": "U",
        "meta_norad_cat_id": 66584,
        "meta_element_set_no": 999,
        "meta_rev_at_epoch": 448,
        "meta_bstar": -0.0031349531,
        "meta_mean_motion_dot": -0.00180429,
        "meta_mean_motion_ddot": 0,
        "tle_line1": "1 66584U 25268AD  25345.58335648 -.00180429  00000+0 -31350-2 0  9992",
        "tle_line2": "2 66584  42.9999 127.8335 0001323 275.3399 252.4168 15.50633557  4483"
      },
      "geometry": {
        "type": "Point",
        "coordinates": [
          56.090757812920394,
          -41.22720966493554
        ]
      }
    },
    {
      "type": "Feature",
      "properties": {
        "norad_id": 66585,
        "name": "STARLINK-35963",
        "group": "last-30-days",
        "lat": -40.76555851557689,
        "lon": 58.50318136982201,
        "alt_km": 417.49090480185987,
        "timestamp": "2025-12-11T20:41:13.847511+00:00",
        "meta_object_name": "STARLINK-35963",
        "meta_object_id": "2025-268AE",
        "meta_epoch": "2025-12-11T14:00:01.999872",
        "meta_mean_motion": 15.5068788,
        "meta_eccentricity": 0.00013585,
        "meta_inclination": 43,
        "meta_ra_of_asc_node": 127.829,
        "meta_arg_of_pericenter": 266.8087,
        "meta_mean_anomaly": 262.7925,
        "meta_ephemeris_type": 0,
        "meta_classification_type": "U",
        "meta_norad_cat_id": 66585,
        "meta_element_set_no": 999,
        "meta_rev_at_epoch": 448,
        "meta_bstar": -0.0041946101,
        "meta_mean_motion_dot": -0.00239959,
        "meta_mean_motion_ddot": 0,
        "tle_line1": "1 66585U 25268AE  25345.58335648 -.00239959  00000+0 -41946-2 0  9998",
        "tle_line2": "2 66585  43.0000 127.8290 0001358 266.8087 262.7925 15.50687880  4489"
      },
      "geometry": {
        "type": "Point",
        "coordinates": [
          58.50318136982201,
          -40.76555851557689
        ]
      }
    },
    {
      "type": "Feature",
      "properties": {
        "norad_id": 66586,
        "name": "TJS-21",
        "group": "last-30-days",
        "lat": 58.15507929997053,
        "lon": -143.3199772419393,
        "alt_km": 34149.67322861003,
        "timestamp": "2025-12-11T20:41:13.847523+00:00",
        "meta_object_name": "TJS-21",
        "meta_object_id": "2025-269A",
        "meta_epoch": "2025-12-10T17:31:22.184832",
        "meta_mean_motion": 2.00567425,
        "meta_eccentricity": 0.6805766,
        "meta_inclination": 63.269,
        "meta_ra_of_asc_node": 162.5612,
        "meta_arg_of_pericenter": 269.7806,
        "meta_mean_anomaly": 18.6565,
        "meta_ephemeris_type": 0,
        "meta_classification_type": "U",
        "meta_norad_cat_id": 66586,
        "meta_element_set_no": 999,
        "meta_rev_at_epoch": 39,
        "meta_bstar": -0.044965385,
        "meta_mean_motion_dot": 1.083e-05,
        "meta_mean_motion_ddot": 0,
        "tle_line1": "1 66586U 25269A   25344.73011788  .00001083  00000+0 -44965-1 0  9999",
        "tle_line2": "2 66586  63.2690 162.5612 6805766 269.7806  18.6565  2.00567425   392"
      },
      "geometry": {
        "type": "Point",
        "coordinates": [
          -143.3199772419393,
          58.15507929997053
        ]
      }
    },
    {
      "type": "Feature",
      "properties": {
        "norad_id": 66587,
        "name": "CZ-3B R/B",
        "group": "last-30-days",
        "lat": 18.662673967596596,
        "lon": -174.5041267876055,
        "alt_km": 29942.276264458287,
        "timestamp": "2025-12-11T20:41:13.847537+00:00",
        "meta_object_name": "CZ-3B R/B",
        "meta_object_id": "2025-269B",
        "meta_epoch": "2025-12-10T19:33:40.006368",
        "meta_mean_motion": 2.03086829,
        "meta_eccentricity": 0.7519519,
        "meta_inclination": 51.3442,
        "meta_ra_of_asc_node": 170.0917,
        "meta_arg_of_pericenter": 228.3676,
        "meta_mean_anomaly": 37.5722,
        "meta_ephemeris_type": 0,
        "meta_classification_type": "U",
        "meta_norad_cat_id": 66587,
        "meta_element_set_no": 999,
        "meta_rev_at_epoch": 41,
        "meta_bstar": 0.0011692039,
        "meta_mean_motion_dot": 0.00057137,
        "meta_mean_motion_ddot": 1.092514e-06,
        "tle_line1": "1 66587U 25269B   25344.81504637  .00057137  10925-5  11692-2 0  9994",
        "tle_line2": "2 66587  51.3442 170.0917 7519519 228.3676  37.5722  2.03086829   418"
      },
      "geometry": {
        "type": "Point",
        "coordinates": [
          -174.5041267876055,
          18.662673967596596
        ]
      }
    },
    {
      "type": "Feature",
      "properties": {
        "norad_id": 66588,
        "name": "STARLINK-36076",
        "group": "last-30-days",
        "lat": 14.554746019262078,
        "lon": 1.7005017532583402,
        "alt_km": 421.1404248025692,
        "timestamp": "2025-12-11T20:41:13.847551+00:00",
        "meta_object_name": "STARLINK-36076",
        "meta_object_id": "2025-270A",
        "meta_epoch": "2025-12-11T14:00:01.999872",
        "meta_mean_motion": 15.48905022,
        "meta_eccentricity": 0.00013554,
        "meta_inclination": 42.9994,
        "meta_ra_of_asc_node": 199.5035,
        "meta_arg_of_pericenter": 253.8594,
        "meta_mean_anomaly": 149.6516,
        "meta_ephemeris_type": 0,
        "meta_classification_type": "U",
        "meta_norad_cat_id": 66588,
        "meta_element_set_no": 999,
        "meta_rev_at_epoch": 421,
        "meta_bstar": -0.039705004,
        "meta_mean_motion_dot": -0.0196421,
        "meta_mean_motion_ddot": 0,
        "tle_line1": "1 66588U 25270A   25345.58335648 -.01964210  00000+0 -39705-1 0  9999",
        "tle_line2": "2 66588  42.9994 199.5035 0001355 253.8594 149.6516 15.48905022  4219"
      },
      "geometry": {
        "type": "Point",
        "coordinates": [
          1.7005017532583402,
          14.554746019262078
        ]
      }
    },
    {
      "type": "Feature",
      "properties": {
        "norad_id": 66589,
        "name": "STARLINK-35447",
        "group": "last-30-days",
        "lat": 9.801648642859963,
        "lon": 7.175777467846533,
        "alt_km": 413.7974545413954,
        "timestamp": "2025-12-11T20:41:13.847567+00:00",
        "meta_object_name": "STARLINK-35447",
        "meta_object_id": "2025-270B",
        "meta_epoch": "2025-12-11T14:00:01.999872",
        "meta_mean_motion": 15.50583223,
        "meta_eccentricity": 0.00019877,
        "meta_inclination": 42.9998,
        "meta_ra_of_asc_node": 199.49,
        "meta_arg_of_pericenter": 264.3064,
        "meta_mean_anomaly": 144.1054,
        "meta_ephemeris_type": 0,
        "meta_classification_type": "U",
        "meta_norad_cat_id": 66589,
        "meta_element_set_no": 999,
        "meta_rev_at_epoch": 432,
        "meta_bstar": -0.0012678648,
        "meta_mean_motion_dot": -0.00074037,
        "meta_mean_motion_ddot": 0,
        "tle_line1": "1 66589U 25270B   25345.58335648 -.00074037  00000+0 -12679-2 0  9990",
        "tle_line2": "2 66589  42.9998 199.4900 0001987 264.3064 144.1054 15.50583223  4321"
      },
      "geometry": {
        "type": "Point",
        "coordinates": [
          7.175777467846533,
          9.801648642859963
        ]
      }
    }
  ]
}